NORAD_CAT_ID,OBJECT_NAME,OBJECT_TYPE,EPOCH,MEAN_MOTION,ECCENTRICITY,INCLINATION,RA_OF_ASC_NODE,ARG_OF_PERICENTER,MEAN_ANOMALY,BSTAR,MEAN_MOTION_DOT,MEAN_MOTION_DDOT,TLE_LINE0,TLE_LINE1,TLE_LINE2,SEMIMAJOR_AXIS,PERIOD,APOGEE,PERIGEE,DECAYED
50175.0,STARLINK-3291,PAYLOAD,2023-03-15 11:03:55,15.08861896,0.0001259,53.2142,103.3438,73.3673,286.7457,0.00060871,9.419e-05,0.0,0 STARLINK-3291,1 50175U 21125V   23074.46105917  .00009419  00000-0  60871-3 0  9996,2 50175  53.2142 103.3438 0001259  73.3673 286.7457 15.08861896 71521,6917.813,95.436,540.549,538.808,0.0
50175.0,STARLINK-3291,PAYLOAD,2023-03-15 19:00:51,15.08833229,8.63e-05,53.2144,101.8575,88.1179,271.9912,-0.00073481,-0.00011961,0.0,0 STARLINK-3291,1 50175U 21125V   23074.79226011 -.00011961  00000-0 -73481-3 0  9999,2 50175  53.2144 101.8575 0000863  88.1179 271.9912 15.08833229 71579,6917.901,95.438,540.363,539.169,0.0
50175.0,STARLINK-3291,PAYLOAD,2023-03-16 10:54:42,15.08848774,0.0001212,53.2141,98.8837,90.2175,269.8956,0.0006478,0.00010039,0.0,0 STARLINK-3291,1 50175U 21125V   23075.45466167  .00010039  00000-0  64780-3 0  9996,2 50175  53.2141  98.8837 0001212  90.2175 269.8956 15.08848774 71677,6917.854,95.437,540.557,538.88,0.0
50175.0,STARLINK-3291,PAYLOAD,2023-03-16 12:30:06,15.0883987,0.0001212,53.2141,98.5869,91.9508,268.1623,0.0012377,0.00019465,0.0,0 STARLINK-3291,1 50175U 21125V   23075.52090368  .00019465  00000-0  12377-2 0  9996,2 50175  53.2141  98.5869 0001212  91.9508 268.1623 15.08839870 72173,6917.881,95.438,540.584,538.907,0.0
50175.0,STARLINK-3291,PAYLOAD,2023-03-17 07:34:44,15.08829632,0.0001186,53.2147,95.0178,83.4714,276.6413,0.00098202,0.00015371,0.0,0 STARLINK-3291,1 50175U 21125V   23076.31579575  .00015371  00000-0  98202-3 0  9990,2 50175  53.2147  95.0178 0001186  83.4714 276.6413 15.08829632 71804,6917.912,95.438,540.598,538.957,0.0
50175.0,STARLINK-3291,PAYLOAD,2023-03-17 12:20:54,15.08835965,0.000133,53.2147,94.1258,85.9396,274.1748,0.0011575,0.0001818,0.0,0 STARLINK-3291,1 50175U 21125V   23076.51451675  .00018180  00000-0  11575-2 0  9990,2 50175  53.2147  94.1258 0001330  85.9396 274.1748 15.08835965 72325,6917.893,95.438,540.678,538.838,0.0
50175.0,STARLINK-3291,PAYLOAD,2023-03-17 18:42:26,15.08842533,0.0001332,53.2146,92.9366,83.3773,276.7371,0.0010234,0.00016038,0.0,0 STARLINK-3291,1 50175U 21125V   23076.77947700  .00016038  00000-0  10234-2 0  9998,2 50175  53.2146  92.9366 0001332  83.3773 276.7371 15.08842533 72366,6917.873,95.437,540.659,538.816,0.0
50175.0,STARLINK-3291,PAYLOAD,2023-03-18 12:11:40,15.08869656,0.0001373,53.2144,89.6645,86.9285,273.1864,0.0011163,0.00017537,0.0,0 STARLINK-3291,1 50175U 21125V   23077.50810803  .00017537  00000-0  11163-2 0  9990,2 50175  53.2144  89.6645 0001373  86.9285 273.1864 15.08869656 71989,6917.79,95.436,540.605,538.705,0.0
50175.0,STARLINK-3291,PAYLOAD,2023-03-19 05:40:55,15.08846435,0.0001579,53.2143,86.3934,103.6332,256.4836,7.9253e-05,9.74e-06,0.0,0 STARLINK-3291,1 50175U 21125V   23078.23674872  .00000974  00000-0  79253-4 0  9998,2 50175  53.2143  86.3934 0001579 103.6332 256.4836 15.08846435 72097,6917.861,95.437,540.818,538.633,0.0
50175.0,STARLINK-3291,PAYLOAD,2023-03-19 12:02:27,15.08857427,0.0001158,53.2146,85.2045,86.8181,273.2943,0.00076398,0.00011897,0.0,0 STARLINK-3291,1 50175U 21125V   23078.50170653  .00011897  00000-0  76398-3 0  9998,2 50175  53.2146  85.2045 0001158  86.8181 273.2943 15.08857427 72626,6917.827,95.436,540.493,538.891,0.0
50175.0,STARLINK-3291,PAYLOAD,2023-03-20 07:07:05,15.08848742,0.0001226,53.2164,81.6375,102.2146,257.8983,0.0006071,9.39e-05,0.0,0 STARLINK-3291,1 50175U 21125V   23079.29659055  .00009390  00000-0  60710-3 0  9999,2 50175  53.2164  81.6375 0001226 102.2146 257.8983 15.08848742 72253,6917.854,95.437,540.567,538.871,0.0
50175.0,STARLINK-3291,PAYLOAD,2023-03-20 10:17:51,15.0884988,0.0001218,53.2163,81.0424,104.6669,255.4458,0.00072118,0.00011211,0.0,0 STARLINK-3291,1 50175U 21125V   23079.42907028  .00011211  00000-0  72118-3 0  9990,2 50175  53.2163  81.0424 0001218 104.6669 255.4458 15.08849880 72769,6917.85,95.437,540.558,538.873,0.0
50175.0,STARLINK-3291,PAYLOAD,2023-03-20 16:39:24,15.08839973,0.0001392,53.2153,79.85,95.7649,264.3502,0.00041692,6.354e-05,0.0,0 STARLINK-3291,1 50175U 21125V   23079.69403296  .00006354  00000-0  41692-3 0  9992,2 50175  53.2153  79.8500 0001392  95.7649 264.3502 15.08839973 72805,6917.88,95.438,540.708,538.783,0.0
50175.0,STARLINK-3291,PAYLOAD,2023-03-20 23:00:56,15.08845071,0.000127,53.2151,78.6619,96.8643,263.2493,0.00080588,0.00012563,0.0,0 STARLINK-3291,1 50175U 21125V   23079.95899181  .00012563  00000-0  80588-3 0  9999,2 50175  53.2151  78.6619 0001270  96.8643 263.2493 15.08845071 72355,6917.865,95.437,540.608,538.851,0.0
50175.0,STARLINK-3291,PAYLOAD,2023-03-21 10:08:38,15.08869926,0.000122,53.2151,76.5809,111.0321,249.0802,0.0014844,0.00023435,0.0,0 STARLINK-3291,1 50175U 21125V   23080.42266527  .00023435  00000-0  14844-2 0  9996,2 50175  53.2151  76.5809 0001220 111.0321 249.0802 15.08869926 72914,6917.789,95.436,540.498,538.81,0.0
50175.0,STARLINK-3291,PAYLOAD,2023-03-22 06:48:38,15.08847614,0.0001354,53.2148,72.7126,122.9003,237.2119,0.00016515,2.342e-05,0.0,0 STARLINK-3291,1 50175U 21125V   23081.28378430  .00002342  00000-0  16515-3 0  9990,2 50175  53.2148  72.7126 0001354 122.9003 237.2119 15.08847614 72556,6917.857,95.437,540.659,538.785,0.0
50175.0,STARLINK-3291,PAYLOAD,2023-03-22 16:20:57,15.08853136,0.0001189,53.2155,70.9305,110.8974,249.2146,0.00025917,3.841e-05,0.0,0 STARLINK-3291,1 50175U 21125V   23081.68122196  .00003841  00000-0  25917-3 0  9991,2 50175  53.2155  70.9305 0001189 110.8974 249.2146 15.08853136 73103,6917.84,95.437,540.528,538.883,0.0
50175.0,STARLINK-3291,PAYLOAD,2023-03-23 05:04:03,15.08834108,0.0001339,53.2155,68.5507,98.5461,261.5683,-2.3519e-05,-6.62e-06,0.0,0 STARLINK-3291,1 50175U 21125V   23082.21115203 -.00000662  00000-0 -23519-4 0  9999,2 50175  53.2155  68.5507 0001339  98.5461 261.5683 15.08834108 72694,6917.898,95.438,540.69,538.837,0.0
50175.0,STARLINK-3291,PAYLOAD,2023-03-23 08:14:49,15.08836743,0.0001171,53.2153,67.954,101.8688,258.2436,0.00010163,1.33e-05,0.0,0 STARLINK-3291,1 50175U 21125V   23082.34363068  .00001330  00000-0  10163-3 0  9998,2 50175  53.2153  67.9540 0001171 101.8688 258.2436 15.08836743 73209,6917.89,95.438,540.565,538.945,0.0
50175.0,STARLINK-3291,PAYLOAD,2023-03-23 16:11:45,15.08831746,0.0001229,53.2156,66.4676,94.6246,265.4886,0.00011683,1.572e-05,0.0,0 STARLINK-3291,1 50175U 21125V   23082.67483573  .00001572  00000-0  11683-3 0  9994,2 50175  53.2156  66.4676 0001229  94.6246 265.4886 15.08831746 73251,6917.906,95.438,540.621,538.92,0.0
50175.0,STARLINK-3291,PAYLOAD,2023-03-24 04:54:50,15.08870862,0.0001301,53.2156,64.0898,106.2462,253.8674,0.00087454,0.00013669,0.0,0 STARLINK-3291,1 50175U 21125V   23083.20474652  .00013669  00000-0  87454-3 0  9991,2 50175  53.2156  64.0898 0001301 106.2462 253.8674 15.08870862 72844,6917.786,95.436,540.551,538.751,0.0
50175.0,STARLINK-3291,PAYLOAD,2023-03-24 16:02:32,15.08850636,9.83e-05,53.2154,62.0091,77.9249,282.1853,0.00049828,7.653e-05,0.0,0 STARLINK-3291,1 50175U 21125V   23083.66843097  .00007653  00000-0  49828-3 0  9993,2 50175  53.2154  62.0091 0000983  77.9249 282.1853 15.08850636 72916,6917.848,95.437,540.393,539.033,0.0
50175.0,STARLINK-3291,PAYLOAD,2023-03-25 04:45:37,15.08840904,4.68e-05,53.2161,59.6299,64.8971,295.2069,5.2674e-05,5.51e-06,0.0,0 STARLINK-3291,1 50175U 21125V   23084.19835080  .00000551  00000-0  52674-4 0  9999,2 50175  53.2161  59.6299 0000468  64.8971 295.2069 15.08840904 72990,6917.878,95.437,540.066,539.419,0.0
50175.0,STARLINK-3291,PAYLOAD,2023-03-25 15:53:19,15.08838945,7.26e-05,53.2153,57.5493,59.7351,300.3713,7.3002e-05,8.74e-06,0.0,0 STARLINK-3291,1 50175U 21125V   23084.66203307  .00000874  00000-0  73002-4 0  9998,2 50175  53.2153  57.5493 0000726  59.7351 300.3713 15.08838945 73555,6917.884,95.438,540.251,539.246,0.0
50175.0,STARLINK-3291,PAYLOAD,2023-03-26 04:36:25,15.08832237,7.65e-05,53.2165,55.1706,63.1831,296.924,0.0002188,3.196e-05,0.0,0 STARLINK-3291,1 50175U 21125V   23085.19195910  .00003196  00000-0  21880-3 0  9993,2 50175  53.2165  55.1706 0000765  63.1831 296.9240 15.08832237 73142,6917.904,95.438,540.298,539.24,0.0
50175.0,STARLINK-3291,PAYLOAD,2023-03-26 07:47:11,15.08839813,7.96e-05,53.2158,54.5762,57.1315,302.9753,0.00042739,6.521e-05,0.0,0 STARLINK-3291,1 50175U 21125V   23085.32443795  .00006521  00000-0  42739-3 0  9996,2 50175  53.2158  54.5762 0000796  57.1315 302.9753 15.08839813 73169,6917.881,95.438,540.297,539.195,0.0
50175.0,STARLINK-3291,PAYLOAD,2023-03-27 06:02:35,15.08848582,7.74e-05,53.2171,50.4139,74.0417,286.066,0.00045816,7.013e-05,0.0,0 STARLINK-3291,1 50175U 21125V   23086.25179867  .00007013  00000-0  45816-3 0  9991,2 50175  53.2171  50.4139 0000774  74.0417 286.0660 15.08848582 73795,6917.854,95.437,540.255,539.184,0.0
50175.0,STARLINK-3291,PAYLOAD,2023-03-28 05:53:22,15.08851714,0.0001001,53.2172,45.9523,78.5075,281.6029,0.00038452,5.839e-05,0.0,0 STARLINK-3291,1 50175U 21125V   23087.24539839  .00005839  00000-0  38452-3 0  9992,2 50175  53.2172  45.9523 0001001  78.5075 281.6029 15.08851714 73459,6917.845,95.437,540.402,539.017,0.0
50175.0,STARLINK-3291,PAYLOAD,2023-03-28 07:28:45,15.08854749,9.84e-05,53.2169,45.6543,81.8408,278.2696,0.00042618,6.504e-05,0.0,0 STARLINK-3291,1 50175U 21125V   23087.31163735  .00006504  00000-0  42618-3 0  9997,2 50175  53.2169  45.6543 0000984  81.8408 278.2696 15.08854749 73958,6917.835,95.437,540.381,539.02,0.0
50175.0,STARLINK-3291,PAYLOAD,2023-03-28 21:47:13,15.08845934,0.000124,53.2164,42.9772,96.3214,263.7919,0.00019428,2.806e-05,0.0,0 STARLINK-3291,1 50175U 21125V   23087.90779913  .00002806  00000-0  19428-3 0  9997,2 50175  53.2164  42.9772 0001240  96.3214 263.7919 15.08845934 73558,6917.862,95.437,540.585,538.869,0.0
